STARLINK-5598           
1 55421U 23014AG  26068.42989302  .00001715  00000+0  15151-3 0  9995
2 55421  69.9992  85.1003 0003619 272.2762  87.7982 14.98322418171526
LEMUR-2-BALTO           
1 63395U 25052BH  26068.69493058  .00007621  00000+0  63456-3 0  9998
2 63395  97.6978 323.5166 0002279 359.2852   0.8367 14.98934076 53850
